DMSP 5D-3 F16 (USA 172) 
1 28054U 03048A   26194.29005787 -.00000057  00000+0 -62082-5 0  9990
2 28054  98.9896 218.2903 0008112  75.9089 105.8076 14.14484870173172
METEOSAT-9 (MSG-2)      
1 28912U 05049B   26194.21363282  .00000115  00000+0  00000+0 0  9994
2 28912   9.4181  53.9066 0002075 356.1561   3.6006  1.00271011  7259
DMSP 5D-3 F17 (USA 191) 
1 29522U 06050A   26194.26212860 -.00000016  00000+0  13900-4 0  9994
2 29522  98.7386 200.2993 0009824 348.5675  11.5274 14.14996126 16111
GOES 14                 
1 35491U 09033A   26194.22957956 -.00000361  00000+0  00000+0 0  9993
2 35491   1.7544  82.7178 0001865  40.7065  16.6294  1.00099025  6853
DMSP 5D-3 F18 (USA 210) 
1 35951U 09057A   26194.23515598  .00000161  00000+0  10623-3 0  9996
2 35951  98.9055 174.9498 0011109 170.9536 189.1839 14.14910835863277
EWS-G2 (GOES 15)        
1 36411U 10008A   26193.89142229  .00000020  00000+0  00000+0 0  9992
2 36411   1.3455  82.4942 0005186  53.7092 178.8248  1.00268270 59895
FENGYUN 3B              
1 37214U 10059A   26194.32862351  .00000248  00000+0  15121-3 0  9990
2 37214  98.9614 240.4521 0023122 111.6824 311.6572 14.14847912811126
SUOMI NPP               
1 37849U 11061A   26194.27936980  .00000004  00000+0  22926-4 0  9994
2 37849  98.7956 134.9780 0000665 225.8097 134.3024 14.19522367762146
METEOSAT-10 (MSG-3)     
1 38552U 12035B   26194.27591500 -.00000014  00000+0  00000+0 0  9999
2 38552   4.7312  60.8889 0001081  17.0285 312.6199  1.00270379 51112
METOP-B                 
1 38771U 12049A   26194.30463348  .00000048  00000+0  41587-4 0  9995
2 38771  98.6491 245.2810 0001065 267.1149  92.9906 14.21446031716970
INSAT-3D                
1 39216U 13038B   26194.30148179 -.00000344  00000+0  00000+0 0  9991
2 39216   1.9910  82.2100 0000500  85.7471   1.2701  1.00269309 47342
FENGYUN 3C              
1 39260U 13052A   26194.26362650  .00000017  00000+0  30007-4 0  9994
2 39260  98.4997 166.9435 0013755 311.9263  48.0738 14.15760470662254
METEOR-M 2              
1 40069U 14037A   26194.26023240  .00000481  00000+0  23903-3 0  9997
2 40069  98.5123 169.0771 0005277 333.3836  26.7071 14.21470614623026
HIMAWARI-8              
1 40267U 14060A   26194.30373513 -.00000278  00000+0  00000+0 0  9993
2 40267   0.0158 322.6430 0001051 207.2060  11.3449  1.00272044 43020
METEOSAT-11 (MSG-4)     
1 40732U 15034A   26194.20643946  .00000056  00000+0  00000+0 0  9994
2 40732   3.2644  70.9465 0002213 353.5989 310.1074  1.00271240  7479
ELEKTRO-L 2             
1 41105U 15074A   26193.98778307 -.00000125  00000+0  00000+0 0  9995
2 41105   6.7552  70.2019 0000942 215.4440 346.3207  1.00272232 38760
SENTINEL-3A             
1 41335U 16011A   26194.30487351  .00000048  00000+0  37974-4 0  9993
2 41335  98.6238 261.3119 0001367  90.7843 269.3494 14.26739453541781
INSAT-3DR               
1 41752U 16054A   26194.19087578 -.00000079  00000+0  00000+0 0  9997
2 41752   0.0647  88.7637 0010627 181.1898 163.8347  1.00270603 36076
HIMAWARI-9              
1 41836U 16064A   26194.23243957 -.00000278  00000+0  00000+0 0  9992
2 41836   0.0069 106.8242 0002194  73.0852 335.6285  1.00270552 35476
GOES 16                 
1 41866U 16071A   26194.25511491 -.00000094  00000+0  00000+0 0  9992
2 41866   0.3988  85.4934 0000525  98.9526  93.8384  1.00270880 35367
FENGYUN 4A              
1 41882U 16077A   26194.30035512 -.00000362  00000+0  00000+0 0  9995
2 41882   2.3854  79.9853 0008490 159.3794 283.7078  1.00269144 35197
CYGFM05                 
1 41884U 16078A   26194.07897495  .00018762  00000+0  24403-3 0  9997
2 41884  34.9569  88.9898 0006316  15.7870 344.3051 15.57789099532793
CYGFM04                 
1 41885U 16078B   26194.03018829  .00024628  00000+0  26201-3 0  9996
2 41885  34.9326  55.6613 0004454  59.1266 300.9897 15.62986297533043
CYGFM02                 
1 41886U 16078C   26193.97930867  .00030539  00000+0  28498-3 0  9992
2 41886  34.9408  49.7493 0005165  62.8407 297.2847 15.66243544533210
CYGFM01                 
1 41887U 16078D   26194.12013118  .00017581  00000+0  22263-3 0  9998
2 41887  34.9398  89.5590 0006360   9.5607 350.5238 15.58504304532757
CYGFM08                 
1 41888U 16078E   26194.03363925  .00022901  00000+0  25945-3 0  9995
2 41888  34.9434  69.0074 0006486  45.5670 314.5586 15.61371844533019
CYGFM07                 
1 41890U 16078G   26193.99110164  .00022787  00000+0  25722-3 0  9992
2 41890  34.9450  57.6102 0004833  59.8500 300.2704 15.61478548533034
CYGFM03                 
1 41891U 16078H   26194.02620976  .00022558  00000+0  25476-3 0  9997
2 41891  34.9406  59.3057 0004819  42.9005 317.2096 15.61466681533016
